{
    "links": {
        "self": "http://www.neowsapp.com/rest/v1/neo/3696193?api_key=iIulBulltgU6a56xZRHN4H3l9WmuAYTsLGpBGhQ2"
    },
    "id": "3696193",
    "neo_reference_id": "3696193",
    "name": "(2014 WN4)",
    "designation": "2014 WN4",
    "nasa_jpl_url": "http://ssd.jpl.nasa.gov/sbdb.cgi?sstr=3696193",
    "absolute_magnitude_h": 23.3,
    "estimated_diameter": {
        "kilometers": {
            "estimated_diameter_min": 0.058150704,
            "estimated_diameter_max": 0.130028927
        },
        "meters": {
            "estimated_diameter_min": 58.1507039646,
            "estimated_diameter_max": 130.0289270043
        },
        "miles": {
            "estimated_diameter_min": 0.0361331611,
            "estimated_diameter_max": 0.0807962044
        },
        "feet": {
            "estimated_diameter_min": 190.7831555951,
            "estimated_diameter_max": 426.6041048727
        }
    },
    "is_potentially_hazardous_asteroid": false,
    "close_approach_data": [
        {
            "close_approach_date": "2010-12-24",
            "close_approach_date_full": "2010-Dec-24 21:20",
            "epoch_date_close_approach": 1293225600000,
            "relative_velocity": {
                "kilometers_per_second": "16.8804047573",
                "kilometers_per_hour": "60769.4571264413",
                "miles_per_hour": "37759.7774017046"
            },
            "miss_distance": {
                "astronomical": "0.4826151194",
                "lunar": "187.7372814466",
                "kilometers": "72198193.892035678",
                "miles": "44861877.4116132364"
            },
            "orbiting_body": "Earth"
        },
        {
            "close_approach_date": "2012-12-05",
            "close_approach_date_full": "2012-Dec-05 00:45",
            "epoch_date_close_approach": 1354668300000,
            "relative_velocity": {
                "kilometers_per_second": "11.2691491284",
                "kilometers_per_hour": "40568.9368621187",
                "miles_per_hour": "25207.9596852426"
            },
            "miss_distance": {
                "astronomical": "0.2520192391",
                "lunar": "98.0354840099",
                "kilometers": "37701541.368380717",
                "miles": "23426651.4980472146"
            },
            "orbiting_body": "Earth"
        },
        {
            "close_approach_date": "2014-11-17",
            "close_approach_date_full": "2014-Nov-17 11:06",
            "epoch_date_close_approach": 1416222360000,
            "relative_velocity": {
                "kilometers_per_second": "9.429227697",
                "kilometers_per_hour": "33945.2197092211",
                "miles_per_hour": "21092.2394354324"
            },
            "miss_distance": {
                "astronomical": "0.0543482426",
                "lunar": "21.1414663714",
                "kilometers": "8130381.331203262",
                "miles": "5051984.6955665356"
            },
            "orbiting_body": "Earth"
        },
        {
            "close_approach_date": "2016-11-01",
            "close_approach_date_full": "2016-Nov-01 16:26",
            "epoch_date_close_approach": 1478017560000,
            "relative_velocity": {
                "kilometers_per_second": "12.633914168",
                "kilometers_per_hour": "45482.0910048616",
                "miles_per_hour": "28260.8026024375"
            },
            "miss_distance": {
                "astronomical": "0.2239832765",
                "lunar": "87.1294945585",
                "kilometers": "33507421.080021055",
                "miles": "20820545.997578359"
            },
            "orbiting_body": "Earth"
        },
        {
            "close_approach_date": "2018-10-19",
            "close_approach_date_full": "2018-Oct-19 04:20",
            "epoch_date_close_approach": 1539922800000,
            "relative_velocity": {
                "kilometers_per_second": "18.1098817267",
                "kilometers_per_hour": "65195.5742162798",
                "miles_per_hour": "40509.9944345545"
            },
            "miss_distance": {
                "astronomical": "0.4505286187",
                "lunar": "175.2556326743",
                "kilometers": "67398121.731562169",
                "miles": "41879250.8773251722"
            },
            "orbiting_body": "Earth"
        }
    ],
    "orbital_data": {
        "orbit_id": "8",
        "orbit_determination_date": "2017-04-06 08:37:31",
        "first_observation_date": "2014-11-16",
        "last_observation_date": "2014-11-26",
        "data_arc_in_days": 10,
        "observations_used": 93,
        "orbit_uncertainty": "7",
        "minimum_orbit_intersection": ".0534671",
        "jupiter_tisserand_invariant": "4.312",
        "epoch_osculation": "2459000.5",
        "eccentricity": ".3411229415660314",
        "semi_major_axis": "1.568096892932623",
        "inclination": "15.57657096136576",
        "ascending_node_longitude": "51.85814375514135",
        "orbital_period": "717.228879558466",
        "perihelion_distance": "1.033183068154893",
        "perihelion_argument": "15.97758127763879",
        "aphelion_distance": "2.103010717710354",
        "perihelion_time": "2459143.751220723018",
        "mean_anomaly": "288.0976534407905",
        "mean_motion": ".5019318243593592",
        "equinox": "J2000",
        "orbit_class": {
            "orbit_class_type": "AMO",
            "orbit_class_description": "Near-Earth asteroid orbits similar to that of 1221 Amor",
            "orbit_class_range": "1.017 AU < q (perihelion) < 1.3 AU"
        }
    },
    "is_sentry_object": false
}